IRIDIUM 57              
1 25273U 98019B   24277.90093432  .00002610  00000+0  90205-3 0  9995
2 25273  86.3918 252.5540 0002331  89.5106 270.6358 14.35446343388015
IRIDIUM 63              
1 25286U 98021B   24277.88162529  .00002795  00000+0  95505-3 0  9995
2 25286  86.4057 189.5284 0002417  78.2686 281.8782 14.36055484387052
IRIDIUM 69              
1 25319U 98026A   24277.83788718  .00004330  00000+0  13598-2 0  9994
2 25319  86.4042 203.5863 0004030 114.9870 245.1748 14.40335346386157
IRIDIUM 71              
1 25320U 98026B   24277.88423883  .00003654  00000+0  11402-2 0  9990
2 25320  86.4047 198.3121 0002007 140.9149 219.2195 14.40625864386685
IRIDIUM 73              
1 25344U 98032C   24277.93683637  .00003831  00000+0  96507-3 0  9991
2 25344  86.4460 155.5923 0002711  95.2346 264.9169 14.50950412393393
IRIDIUM 82              
1 25467U 98051A   24277.89831568  .00037047  00000+0  16422-2 0  9994
2 25467  86.3734 233.9782 0116713 177.0952 183.0994 15.15425481384927
